HST                     
1 20580U 90037B   24108.87054358  .00011457  00000+0  55801-3 0  9998
2 20580  28.4696  28.9793 0002655  93.6300 266.4596 15.16772606667861
POLAR                   
1 23802U 96013A   24108.82508170  .00000177  00000+0  00000+0 0  9993
2 23802  79.0866 235.2265 5847861 235.8249  54.5682  1.29846876134593
SWAS                    
1 25560U 98071A   24109.13907345  .00006695  00000+0  55047-3 0  9990
2 25560  69.8972  90.9955 0006214 354.9707   5.1388 14.99565680378642
CXO                     
1 25867U 99040B   24109.68742308  .00000930  00000+0  00000+0 0  9994
2 25867  39.8987 159.5880 8946259 292.2469 359.9679  0.37811468 25493
XMM-NEWTON              
1 25989U 99066A   24104.40549241  .00000006  00000+0  00000+0 0  9997
2 25989  68.0299 293.8034 5211846  78.1754 321.8645  0.50133296 19027
TERRA                   
1 25994U 99068A   24109.53068637  .00001450  00000+0  31380-3 0  9992
2 25994  98.0524 174.7633 0002366 154.3770 312.5235 14.59666001294468
CLUSTER II-FM7 (SAMBA)  
1 26410U 00041A   24106.02062211 -.00000159  00000+0  00000+0 0  9999
2 26410 138.6546 357.0641 7318950 211.8555   0.6121  0.44243230 28523
CLUSTER II-FM6 (SALSA)  
1 26411U 00041B   24110.49388835  .00000663  00000+0  00000+0 0  9998
2 26411 147.2455  19.3779 8904840 234.2244   0.5288  0.44235784 27856
CLUSTER II-FM5 (RUMBA)  
1 26463U 00045A   24108.27257464  .00000512  00000+0  00000+0 0  9998
2 26463 149.3651  15.1330 8424128 230.4016   0.6524  0.44219287 16708
CLUSTER II-FM8 (TANGO)  
1 26464U 00045B   24110.54531373 -.00000035  00000+0  00000+0 0  9997
2 26464 138.6819 357.1246 7336859 212.0222   0.7636  0.44223214 16797
ODIN                    
1 26702U 01007A   24108.57466226  .00021398  00000+0  97629-3 0  9996
2 26702  97.4878 124.0779 0009769 128.2392 231.9724 15.20598806267681
TIMED                   
1 26998U 01055B   24109.20692260  .00004616  00000+0  46937-3 0  9996
2 26998  74.0741  21.1941 0000541 221.4415 138.6727 14.91077207213026
INTEGRAL                
1 27540U 02048A   24109.32580407  .00000395  00000+0  00000+0 0  9992
2 27540  88.5976  23.6295 8661902 283.6630 214.2568  0.37582224 23668
CORIOLIS                
1 27640U 03001A   24108.88845831  .00000453  00000+0  23569-3 0  9992
2 27640  98.7154 117.0701 0013537 332.9954  27.0516 14.19436534102088
SORCE                   
1 27651U 03004A   24108.90187031  .00008848  00000+0  81446-3 0  9995
2 27651  39.9935  62.5994 0020299 174.8893 185.2109 14.94504736153220
MOST                    
1 27843U 03031D   24108.99223027  .00000333  00000+0  17406-3 0  9999
2 27843  98.7083 116.8294 0010286  20.0622 340.0957 14.20931143 78473
SCISAT 1                
1 27858U 03036A   24109.54987428  .00002145  00000+0  29494-3 0  9997
2 27858  73.9312 297.7793 0007910 189.1276 170.9756 14.79001360114600
SWIFT                   
1 28485U 04047A   24109.44679816  .00021155  00000+0  10023-2 0  9994
2 28485  20.5556 248.3917 0007968 223.1996 136.7815 15.17305110 65239
CLOUDSAT                
1 29107U 06016A   24108.90507088  .00005360  00000+0  68019-3 0  9994
2 29107  98.4053  91.4672 0005940  17.3267 342.8146 14.82137792957231
CALIPSO                 
1 29108U 06016B   24108.93947008  .00004258  00000+0  79566-3 0  9992
2 29108  98.4150  89.3383 0001347  93.2598 266.8758 14.65456863957128
HINODE (SOLAR-B)        
1 29479U 06041A   24108.61440807  .00002227  00000+0  41243-3 0  9996
2 29479  98.0933 124.7912 0016537 272.4817  87.4494 14.66220783938908
SJ-6C                   
1 29505U 06046A   24109.49417232  .00010724  00000+0  81369-3 0  9998
2 29505  97.7263 136.7523 0003486 329.1279  30.9740 15.02391415953199
SJ-6D                   
1 29506U 06046B   24109.49832411  .00004807  00000+0  42310-3 0  9997
2 29506  97.7459 134.9687 0003545 116.4470 243.7116 14.96961007952400
FGRST (GLAST)           
1 33053U 08029A   24109.49262082  .00007374  00000+0  35472-3 0  9996
2 33053  25.5819 259.1279 0010904  58.0578 302.1017 15.16234288875721
WISE                    
1 36119U 09071A   24109.07629341  .00062583  00000+0  83568-3 0  9991
2 36119  97.1555 145.1199 0001829  75.1480 284.9979 15.57874310798888
SDO                     
1 36395U 10005A   24108.52203257 -.00000048  00000+0  00000+0 0  9994
2 36395  33.0017  98.5287 0001465 227.8550 326.0007  1.00274279 52137
CRYOSAT 2               
1 36508U 10013A   24109.53390532  .00000690  00000+0  17050-3 0  9993
2 36508  92.0290  86.5433 0005156 108.9714 251.2052 14.51902998743540
X-SAT                   
1 37389U 11015C   24109.50172483  .00000483  00000+0  22493-3 0  9991
2 37389  98.2952 116.7703 0014994 138.6591 221.5727 14.24664161675731
GCOM-W1 (SHIZUKU)       
1 38337U 12025A   24108.85323241  .00002032  00000+0  46108-3 0  9995
2 38337  98.1990  49.8016 0001613  91.2467 334.3538 14.57098489633949
NUSTAR                  
1 38358U 12031A   24108.91667824  .00003209  00000+0  21602-3 0  9999
2 38358   6.0261 146.4250 0010716 329.3183  76.8786 14.95386556  1689
NEOSSAT                 
1 39089U 13009D   24109.50374936  .00000682  00000+0  25347-3 0  9994
2 39089  98.4062 298.4370 0012378  81.5584 278.7004 14.35115127583458
BRITE-AUSTRIA           
1 39091U 13009F   24109.53000724  .00000734  00000+0  26859-3 0  9998
2 39091  98.3872 298.7254 0011548  79.3934 280.8552 14.35744368583711
IRIS                    
1 39197U 13033A   24108.52991464  .00003345  00000+0  42882-3 0  9995
2 39197  97.9670 299.4927 0026558  21.0607 339.1693 14.81707973583101
HISAKI (SPRINT-A)       
1 39253U 13049A   24109.50194992  .00000238  00000+0  23573-3 0  9999
2 39253  29.7201 274.3695 0136662  95.3866 266.2313 13.55382730525240
CASSIOPE                
1 39265U 13055A   24108.88741847  .00043177  00000+0  91746-3 0  9992
2 39265  80.9526 262.8012 0510355  94.1782 271.7892 14.67073391549542
STSAT-3                 
1 39422U 13066G   24109.50769017  .00006768  00000+0  63221-3 0  9990
2 39422  97.5173  91.4939 0020470 194.5593 165.5041 14.94308284565908
SWARM B                 
1 39451U 13067A   24108.86675193  .00008688  00000+0  40578-3 0  9995
2 39451  87.7537 220.4983 0002420  96.1781 263.9739 15.19685675562835
SWARM A                 
1 39452U 13067B   24108.91537893  .00012214  00000+0  40194-3 0  9990
2 39452  87.3471 344.7834 0002474  77.5552 282.5975 15.31385757584534
SWARM C                 
1 39453U 13067C   24108.91531485  .00012567  00000+0  41356-3 0  9994
2 39453  87.3467 343.3784 0002474  78.1891 281.9637 15.31386794584497
BRITE-CA1 (TORONTO)     
1 40020U 14033L   24109.36428614  .00003113  00000+0  51137-3 0  9994
2 40020  97.8671 248.6359 0082283 283.2961  75.9079 14.69114585526191
OCO 2                   
1 40059U 14035A   24108.90623393  .00001800  00000+0  40921-3 0  9998
2 40059  98.1983  50.6140 0001077  88.9054 271.2268 14.57138410520967
BRITE-PL2 (HEWELIUSZ)   
1 40119U 14049B   24109.26153160  .00005496  00000+0  59765-3 0  9991
2 40119  97.8774 209.2334 0015836 197.3244 162.7434 14.88383122523754
RESURS P2               
1 40360U 14087A   24109.50585942  .00036669  00000+0  53722-3 0  9998
2 40360  97.1520 195.8493 0007621 152.6497 207.5161 15.55449782521772
MMS 1                   
1 40482U 15011A   24109.00001157 -.00001151  00000+0  00000+0 0  9993
2 40482  44.1994  16.1387 9123903 142.5029  96.9851  0.28383998 15203
MMS 2                   
1 40483U 15011B   24109.00001157 -.00001151  00000+0  00000+0 0  9994
2 40483  44.1944  16.1316 9123930 142.5100  96.9800  0.28384007 15184
MMS 3                   
1 40484U 15011C   24109.00001157 -.00001151  00000+0  00000+0 0  9995
2 40484  44.2129  16.1156 9124450 142.5300  96.9366  0.28380582 15184
MMS 4                   
1 40485U 15011D   24109.00001157 -.00001151  00000+0  00000+0 0  9996
2 40485  44.2121  16.1168 9123331 142.5291  96.9356  0.28380589 15182
ASTROSAT                
1 40930U 15052A   24109.10337426  .00003918  00000+0  43468-3 0  9999
2 40930   5.9975  68.9877 0008873 299.3763  60.5478 14.78696016462553
DAMPE                   
1 41173U 15078A   24109.49957497  .00003460  00000+0  13373-3 0  9999
2 41173  97.4291 103.2953 0012875   1.7839 358.3444 15.26850893463870
PISAT                   
1 41784U 16059B   24108.67241047  .00002933  00000+0  54437-3 0  9993
2 41784  97.8395 133.4425 0030274 203.0498 156.9350 14.65646384403790
HXMT (HUIYAN)           
1 42758U 17034A   24109.52326551  .00014266  00000+0  79750-3 0  9995
2 42758  43.0138 244.7326 0014684 146.3479 213.8302 15.13249498377813
FLYING LAPTOP           
1 42831U 17042G   24108.94166516  .00005620  00000+0  52188-3 0  9994
2 42831  97.3865 293.3987 0011261 280.6061  79.3892 14.94715616368136
ZHANGZHENG-1 (CSES)     
1 43194U 18015C   24109.53557232  .00021818  00000+0  98643-3 0  9996
2 43194  97.6009 252.6991 0008740 336.0059  24.0768 15.20917891344622
SALSAT                  
1 46495U 20068K   24109.40705477  .00011832  00000+0  69092-3 0  9997
2 46495  97.8113  67.2653 0015150 150.3870 209.8220 15.11985719195278
IXPE                    
1 49954U 21121A   24108.91667824  .00009966  00000+0  76647-3 0  9998
2 49954   0.2296 120.3959 0009337 104.5885 213.5852 14.97306781  3841
